[
    {
        "Altitude(m)": 611967.2119669103,
        "Argument of Periapsis(deg)": 0.0,
        "Eccentricity": 0.0,
        "Inclination(deg)": 60.0,
        "Latitude(deg)": 59.14026171316327,
        "Longitude(deg)": 91.092052028538,
        "Mean Anomaly(deg)": 98.18179999999998,
        "RAAN(deg)": 85.00000000000001,
        "Satellite Name": "Test1 380",
        "Satellite Number": 380,
        "Semi-Major Axis(m)": 6980739.136638005,
        "Time(s)": 0
    },
    {
        "Altitude(m)": 611934.4119399843,
        "Argument of Periapsis(deg)": 0.00010418945913296404,
        "Eccentricity": 0.0,
        "Inclination(deg)": 60.0,
        "Latitude(deg)": 58.986623947867706,
        "Longitude(deg)": 92.21530105029692,
        "Mean Anomaly(deg)": 98.80190614546183,
        "RAAN(deg)": 84.99957995086027,
        "Satellite Name": "Test1 380",
        "Satellite Number": 380,
        "Semi-Major Axis(m)": 6980739.136638005,
        "Time(s)": 10
    }
]